{"type": "FeatureCollection", "features": [ {"type": "Feature", "properties": {"norad_id": 57401, "name": "TIANMU-1 09", "group": "weather", "lat": -67.41687278389702, "lon": 64.03445077046057, "alt_km": 490.79302286028724, "timestamp": "2025-12-23T05:02:11.667141+00:00", "meta": {"OBJECT_NAME": "TIANMU-1 09", "OBJECT_ID": "2023-101C", "EPOCH": "2025-12-22T23:03:01.273824", "MEAN_MOTION": 15.28225755, "ECCENTRICITY": 0.00063627, "INCLINATION": 97.2804, "RA_OF_ASC_NODE": 45.8891, "ARG_OF_PERICENTER": 55.8578, "MEAN_ANOMALY": 304.3264, "EPHEMERIS_TYPE": 0, "CLASSIFICATION_TYPE": "U", "NORAD_CAT_ID": 57401, "ELEMENT_SET_NO": 999, "REV_AT_EPOCH": 13471, "BSTAR": 0.0003097396, "MEAN_MOTION_DOT": 8.452e-05, "MEAN_MOTION_DDOT": 0}, "tle": {"line1": "1 57401U 23101C   25356.96043141  .00008452  00000+0  30974-3 0  9997", "line2": "2 57401  97.2804  45.8891 0006362  55.8578 304.3264 15.28225755134719"}}, "geometry": {"type": "Point", "coordinates": [64.03445077046057, -67.41687278389702]}}, {"type": "Feature", "properties": {"norad_id": 57402, "name": "TIANMU-1 10", "group": "weather", "lat": 74.9056739070918, "lon": -104.67772698430322, "alt_km": 470.4885550180252, "timestamp": "2025-12-23T05:02:11.667154+00:00", "meta": {"OBJECT_NAME": "TIANMU-1 10", "OBJECT_ID": "2023-101D", "EPOCH": "2025-12-22T22:18:04.574304", "MEAN_MOTION": 15.28216236, "ECCENTRICITY": 0.00080809, "INCLINATION": 97.2884, "RA_OF_ASC_NODE": 46.7191, "ARG_OF_PERICENTER": 53.8305, "MEAN_ANOMALY": 306.3682, "EPHEMERIS_TYPE": 0, "CLASSIFICATION_TYPE": "U", "NORAD_CAT_ID": 57402, "ELEMENT_SET_NO": 999, "REV_AT_EPOCH": 13470, "BSTAR": 0.0002774052, "MEAN_MOTION_DOT": 7.562e-05, "MEAN_MOTION_DDOT": 0}, "tle": {"line1": "1 57402U 23101D   25356.92921961  .00007562  00000+0  27741-3 0  9998", "line2": "2 57402  97.2884  46.7191 0008080  53.8305 306.3682 15.28216236134705"}}, "geometry": {"type": "Point", "coordinates": [-104.67772698430322, 74.9056739070918]}}, {"type": "Feature", "properties": {"norad_id": 57490, "name": "FENGYUN 3F", "group": "weather", "lat": -67.7497046635295, "lon": -136.66430267702196, "alt_km": 833.3360751759392, "timestamp": "2025-12-23T05:02:11.667170+00:00", "meta": {"OBJECT_NAME": "FENGYUN 3F", "OBJECT_ID": "2023-111A", "EPOCH": "2025-12-22T22:47:30.846048", "MEAN_MOTION": 14.19896185, "ECCENTRICITY": 7.951e-05, "INCLINATION": 98.707, "RA_OF_ASC_NODE": 65.0777, "ARG_OF_PERICENTER": 115.1356, "MEAN_ANOMALY": 244.9903, "EPHEMERIS_TYPE": 0, "CLASSIFICATION_TYPE": "U", "NORAD_CAT_ID": 57490, "ELEMENT_SET_NO": 999, "REV_AT_EPOCH": 12385, "BSTAR": 6.5037572e-05, "MEAN_MOTION_DOT": 9.4e-07, "MEAN_MOTION_DDOT": 0}, "tle": {"line1": "1 57490U 23111A   25356.94966257  .00000094  00000+0  65038-4 0  9990", "line2": "2 57490  98.7070  65.0777 0000795 115.1356 244.9903 14.19896185123855"}}, "geometry": {"type": "Point", "coordinates": [-136.66430267702196, -67.7497046635295]}}, {"type": "Feature", "properties": {"norad_id": 58584, "name": "ARKTIKA-M 2", "group": "weather", "lat": 34.810268740172404, "lon": -26.819451224869297, "alt_km": 17889.280663378377, "timestamp": "2025-12-23T05:02:11.667182+00:00", "meta": {"OBJECT_NAME": "ARKTIKA-M 2", "OBJECT_ID": "2023-198A", "EPOCH": "2025-12-22T07:11:23.769888", "MEAN_MOTION": 2.00602601, "ECCENTRICITY": 0.68656622, "INCLINATION": 63.2256, "RA_OF_ASC_NODE": 173.8511, "ARG_OF_PERICENTER": 268.066, "MEAN_ANOMALY": 18.8407, "EPHEMERIS_TYPE": 0, "CLASSIFICATION_TYPE": "U", "NORAD_CAT_ID": 58584, "ELEMENT_SET_NO": 999, "REV_AT_EPOCH": 1477, "BSTAR": 0, "MEAN_MOTION_DOT": 2.07e-06, "MEAN_MOTION_DDOT": 0}, "tle": {"line1": "1 58584U 23198A   25356.29958067  .00000207  00000+0  00000+0 0  9997", "line2": "2 58584  63.2256 173.8511 6865662 268.0660  18.8407  2.00602601 14773"}}, "geometry": {"type": "Point", "coordinates": [-26.819451224869297, 34.810268740172404]}}, {"type": "Feature", "properties": {"norad_id": 58645, "name": "TIANMU-1 11", "group": "weather", "lat": 28.69196018730995, "lon": -159.29473458345024, "alt_km": 492.5677318242151, "timestamp": "2025-12-23T05:02:11.667193+00:00", "meta": {"OBJECT_NAME": "TIANMU-1 11", "OBJECT_ID": "2023-205A", "EPOCH": "2025-12-22T23:39:02.761632", "MEAN_MOTION": 15.24717023, "ECCENTRICITY": 0.000753, "INCLINATION": 97.3593, "RA_OF_ASC_NODE": 16.4285, "ARG_OF_PERICENTER": 266.5995, "MEAN_ANOMALY": 93.4382, "EPHEMERIS_TYPE": 0, "CLASSIFICATION_TYPE": "U", "NORAD_CAT_ID": 58645, "ELEMENT_SET_NO": 999, "REV_AT_EPOCH": 11065, "BSTAR": 0.00026927549, "MEAN_MOTION_DOT": 6.597e-05, "MEAN_MOTION_DDOT": 0}, "tle": {"line1": "1 58645U 23205A   25356.98544863  .00006597  00000+0  26928-3 0  9994", "line2": "2 58645  97.3593  16.4285 0007530 266.5995  93.4382 15.24717023110653"}}, "geometry": {"type": "Point", "coordinates": [-159.29473458345024, 28.69196018730995]}}, {"type": "Feature", "properties": {"norad_id": 58646, "name": "TIANMU-1 12", "group": "weather", "lat": -1.1746742428827885, "lon": 16.602799038663047, "alt_km": 496.9338477388701, "timestamp": "2025-12-23T05:02:11.667203+00:00", "meta": {"OBJECT_NAME": "TIANMU-1 12", "OBJECT_ID": "2023-205B", "EPOCH": "2025-12-23T00:18:58.267296", "MEAN_MOTION": 15.24602907, "ECCENTRICITY": 0.00058913, "INCLINATION": 97.3581, "RA_OF_ASC_NODE": 16.2578, "ARG_OF_PERICENTER": 244.5466, "MEAN_ANOMALY": 115.5163, "EPHEMERIS_TYPE": 0, "CLASSIFICATION_TYPE": "U", "NORAD_CAT_ID": 58646, "ELEMENT_SET_NO": 999, "REV_AT_EPOCH": 11064, "BSTAR": 0.00029283278, "MEAN_MOTION_DOT": 7.154e-05, "MEAN_MOTION_DDOT": 0}, "tle": {"line1": "1 58646U 23205B   25357.01317439  .00007154  00000+0  29283-3 0  9994", "line2": "2 58646  97.3581  16.2578 0005891 244.5466 115.5163 15.24602907110647"}}, "geometry": {"type": "Point", "coordinates": [16.602799038663047, -1.1746742428827885]}}, {"type": "Feature", "properties": {"norad_id": 58647, "name": "TIANMU-1 13", "group": "weather", "lat": 3.401615403613563, "lon": -162.90335903197686, "alt_km": 491.32519435332324, "timestamp": "2025-12-23T05:02:11.667215+00:00", "meta": {"OBJECT_NAME": "TIANMU-1 13", "OBJECT_ID": "2023-205C", "EPOCH": "2025-12-22T23:32:21.139872", "MEAN_MOTION": 15.2464607, "ECCENTRICITY": 0.00064658, "INCLINATION": 97.3609, "RA_OF_ASC_NODE": 16.4313, "ARG_OF_PERICENTER": 221.9986, "MEAN_ANOMALY": 138.0757, "EPHEMERIS_TYPE": 0, "CLASSIFICATION_TYPE": "U", "NORAD_CAT_ID": 58647, "ELEMENT_SET_NO": 999, "REV_AT_EPOCH": 11063, "BSTAR": 0.00027363094, "MEAN_MOTION_DOT": 6.689e-05, "MEAN_MOTION_DDOT": 0}, "tle": {"line1": "1 58647U 23205C   25356.98080023  .00006689  00000+0  27363-3 0  9995", "line2": "2 58647  97.3609  16.4313 0006465 221.9986 138.0757 15.24646070110639"}}, "geometry": {"type": "Point", "coordinates": [-162.90335903197686, 3.401615403613563]}}, {"type": "Feature", "properties": {"norad_id": 58648, "name": "TIANMU-1 14", "group": "weather", "lat": -82.04482835253373, "lon": 128.44457449315578, "alt_km": 495.46052611934556, "timestamp": "2025-12-23T05:02:11.667226+00:00", "meta": {"OBJECT_NAME": "TIANMU-1 14", "OBJECT_ID": "2023-205D", "EPOCH": "2025-12-22T23:08:36.593952", "MEAN_MOTION": 15.24628391, "ECCENTRICITY": 0.00071777, "INCLINATION": 97.3541, "RA_OF_ASC_NODE": 15.7544, "ARG_OF_PERICENTER": 228.2526, "MEAN_ANOMALY": 131.8099, "EPHEMERIS_TYPE": 0, "CLASSIFICATION_TYPE": "U", "NORAD_CAT_ID": 58648, "ELEMENT_SET_NO": 999, "REV_AT_EPOCH": 11063, "BSTAR": 0.00027183107, "MEAN_MOTION_DOT": 6.642e-05, "MEAN_MOTION_DDOT": 0}, "tle": {"line1": "1 58648U 23205D   25356.96431243  .00006642  00000+0  27183-3 0  9997", "line2": "2 58648  97.3541  15.7544 0007177 228.2526 131.8099 15.24628391110630"}}, "geometry": {"type": "Point", "coordinates": [128.44457449315578, -82.04482835253373]}}, {"type": "Feature", "properties": {"norad_id": 58660, "name": "TIANMU-1 19", "group": "weather", "lat": -69.86274432178583, "lon": 129.10372150739911, "alt_km": 488.50319738589405, "timestamp": "2025-12-23T05:02:11.667236+00:00", "meta": {"OBJECT_NAME": "TIANMU-1 19", "OBJECT_ID": "2023-208A", "EPOCH": "2025-12-22T23:03:41.015232", "MEAN_MOTION": 15.2802632, "ECCENTRICITY": 0.0004643, "INCLINATION": 97.4394, "RA_OF_ASC_NODE": 107.979, "ARG_OF_PERICENTER": 208.6366, "MEAN_ANOMALY": 151.4619, "EPHEMERIS_TYPE": 0, "CLASSIFICATION_TYPE": "U", "NORAD_CAT_ID": 58660, "ELEMENT_SET_NO": 999, "REV_AT_EPOCH": 11038, "BSTAR": 0.00035369655, "MEAN_MOTION_DOT": 9.6e-05, "MEAN_MOTION_DDOT": 0}, "tle": {"line1": "1 58660U 23208A   25356.96089138  .00009600  00000+0  35370-3 0  9990", "line2": "2 58660  97.4394 107.9790 0004643 208.6366 151.4619 15.28026320110383"}}, "geometry": {"type": "Point", "coordinates": [129.10372150739911, -69.86274432178583]}}, {"type": "Feature", "properties": {"norad_id": 58661, "name": "TIANMU-1 20", "group": "weather", "lat": 47.17446407636615, "lon": 100.5875354063707, "alt_km": 478.6143819939016, "timestamp": "2025-12-23T05:02:11.667248+00:00", "meta": {"OBJECT_NAME": "TIANMU-1 20", "OBJECT_ID": "2023-208B", "EPOCH": "2025-12-22T22:32:48.011712", "MEAN_MOTION": 15.29216035, "ECCENTRICITY": 0.00067157, "INCLINATION": 97.4332, "RA_OF_ASC_NODE": 108.4152, "ARG_OF_PERICENTER": 223.4533, "MEAN_ANOMALY": 136.6179, "EPHEMERIS_TYPE": 0, "CLASSIFICATION_TYPE": "U", "NORAD_CAT_ID": 58661, "ELEMENT_SET_NO": 999, "REV_AT_EPOCH": 11045, "BSTAR": 0.00036645705, "MEAN_MOTION_DOT": 0.00010323, "MEAN_MOTION_DDOT": 0}, "tle": {"line1": "1 58661U 23208B   25356.93944458  .00010323  00000+0  36646-3 0  9994", "line2": "2 58661  97.4332 108.4152 0006715 223.4533 136.6179 15.29216035110456"}}, "geometry": {"type": "Point", "coordinates": [100.5875354063707, 47.17446407636615]}}]}